IRIDIUM 155             
1 43573U 18061E   25194.45470424 -.00000009  00000+0 -10165-4 0  9996
2 43573  86.3985 198.2018 0002080  81.6124 278.5307 14.34217527364803
IRIDIUM 154             
1 43574U 18061F   25194.57521393 -.00000005  00000+0 -90186-5 0  9990
2 43574  86.3988 198.2680 0002175  89.2353 270.9092 14.34217417364877
IRIDIUM 163             
1 43575U 18061G   25194.48641744 -.00000001  00000+0 -72873-5 0  9993
2 43575  86.3986 198.2313 0002329  86.7899 273.3563 14.34217700364838
IRIDIUM 156             
1 43576U 18061H   25194.46104677 -.00000003  00000+0 -81789-5 0  9999
2 43576  86.3987 198.2488 0001924  82.6990 277.4424 14.34217621364822
IRIDIUM 164             
1 43577U 18061J   25194.51178749  .00000015  00000+0 -15449-5 0  9999
2 43577  86.3982 198.2623 0002153  94.6420 265.5021 14.34217818364879
IRIDIUM 159             
1 43578U 18061K   25194.48007457  .00000002  00000+0 -62103-5 0  9998
2 43578  86.3986 198.2196 0002342  93.7177 266.4287 14.34217734364835
IRIDIUM 180             
1 43922U 19002A   25194.54934005  .00000073  00000+0  19122-4 0  9991
2 43922  86.3998 135.1735 0002343  83.3156 276.8306 14.34217999340455
IRIDIUM 176             
1 43923U 19002B   25194.54388953  .00000660  00000+0  10070-3 0  9991
2 43923  86.6123 135.1666 0002641  72.0860 288.0645 14.72250408349421
IRIDIUM 168             
1 43924U 19002C   25194.54299719  .00000114  00000+0  33529-4 0  9992
2 43924  86.4001 135.2440 0002298  84.1620 275.9837 14.34217789340435
IRIDIUM 173             
1 43925U 19002D   25194.53031733  .00000111  00000+0  32595-4 0  9991
2 43925  86.3997 135.1521 0002391  80.9843 279.1624 14.34215383340419
IRIDIUM 169             
1 43926U 19002E   25194.44606209  .00000286  00000+0  86914-4 0  9995
2 43926  86.4262 166.7716 0002561  53.5292 306.6142 14.38603953341527
IRIDIUM 172             
1 43927U 19002F   25194.59373866  .00000089  00000+0  24539-4 0  9998
2 43927  86.3998 135.1325 0002524  85.6959 274.4525 14.34218017340439
IRIDIUM 175             
1 43928U 19002G   25194.40294612  .00000638  00000+0  97288-4 0  9991
2 43928  86.1487  86.2469 0001439  78.3999 281.7379 14.72249014349398
IRIDIUM 171             
1 43929U 19002H   25194.57470958  .00000083  00000+0  22704-4 0  9994
2 43929  86.4007 135.4092 0001941  88.4059 271.7359 14.34218071340425
IRIDIUM 170             
1 43930U 19002J   25194.34615736  .00000659  00000+0  10068-3 0  9994
2 43930  86.6122 135.2536 0002357  78.5543 281.5939 14.72250941349402
IRIDIUM 167             
1 43931U 19002K   25194.56836735  .00000001  00000+0 -66239-5 0  9998
2 43931  86.4000 135.1626 0001711  79.4846 280.6543 14.34217342340424
IRIDIUM 181             
1 56726U 23068S   25194.50170660  .00000143  00000+0  36558-4 0  9999
2 56726  86.4520 198.2474 0002072 103.6017 256.5415 14.43311155113581
IRIDIUM 177             
1 56727U 23068T   25194.30051826  .00000442  00000+0  54648-4 0  9992
2 56727  86.1994 129.7390 0002341  89.1599 270.9890 14.80229131116237
IRIDIUM 174             
1 56728U 23068U   25194.53770124  .00000701  00000+0  10723-3 0  9990
2 56728  86.6131 135.2865 0003122  80.2451 279.9119 14.72258316116198
IRIDIUM 178             
1 56729U 23068V   25194.42482544  .00000888  00000+0  11348-3 0  9995
2 56729  86.6582 166.8868 0002713  86.0010 274.1522 14.80235157116251
IRIDIUM 179             
1 56730U 23068W   25194.48705103  .00000484  00000+0  60300-4 0  9997
2 56730  86.6820 174.8093 0002512  86.8258 273.3251 14.80234092116264
